GLOBALSTAR M001 [-]     
1 25162U 98008A   23293.19915921 -.00000071  00000+0  19863-3 0  9995
2 25162  52.0028 296.9365 0001856  54.8798  26.1309 12.38168714168755
GLOBALSTAR M004 [-]     
1 25163U 98008B   23293.43991745 -.00000103  00000+0  82609-5 0  9997
2 25163  51.9974 102.0626 0003473  40.1158 337.4093 12.63340595185121
GLOBALSTAR M002 [-]     
1 25164U 98008C   23293.23193684 -.00000054  00000+0  44675-3 0  9996
2 25164  52.0026 319.5195 0001514 109.8019 250.2965 11.61496552113652
GLOBALSTAR M003 [-]     
1 25165U 98008D   23293.47401064  .00000053  00000+0  15237-2 0  9996
2 25165  51.9781  46.2177 0008432 152.1453 285.5909 12.11946184159771
GLOBALSTAR M014 [-]     
1 25306U 98023A   23293.30319994 -.00000045  00000+0  61764-3 0  9991
2 25306  51.9828 255.2978 0001090 355.0896 154.1070 11.65461249120522
GLOBALSTAR M006 [-]     
1 25307U 98023B   23293.45994497 -.00000034  00000+0  84520-3 0  9998
2 25307  51.9928 284.7377 0003721  95.9780  75.2611 11.58155066146643
GLOBALSTAR M015 [-]     
1 25308U 98023C   23293.49932639  .00000019  00000+0  21209-2 0  9999
2 25308  51.9855 355.3598 0012728  80.4677  22.2311 11.48854507124835
GLOBALSTAR M008 [-]     
1 25309U 98023D   23293.01078403 -.00000058  00000+0  30315-3 0  9991
2 25309  51.9951 155.4523 0002562 358.7909 148.4297 12.36030223162884
